[{"OBJECT_NAME":"OBJECT B","OBJECT_ID":"2025-108B","EPOCH":"2026-03-09T22:57:20.569248","MEAN_MOTION":15.18732481,"ECCENTRICITY":0.00118477,"INCLINATION":97.4788,"RA_OF_ASC_NODE":145.8779,"ARG_OF_PERICENTER":0.6755,"MEAN_ANOMALY":359.4493,"EPHEMERIS_TYPE":0,"CLASSIFICATION_TYPE":"U","NORAD_CAT_ID":64088,"ELEMENT_SET_NO":999,"REV_AT_EPOCH":4430,"BSTAR":0.00058992219,"MEAN_MOTION_DOT":0.00012214,"MEAN_MOTION_DDOT":0},{"OBJECT_NAME":"SL-8 DEB","OBJECT_ID":"1971-114D","EPOCH":"2026-03-09T21:09:22.343904","MEAN_MOTION":15.17425388,"ECCENTRICITY":0.00068282,"INCLINATION":73.9839,"RA_OF_ASC_NODE":358.0676,"ARG_OF_PERICENTER":210.5814,"MEAN_ANOMALY":149.4984,"EPHEMERIS_TYPE":0,"CLASSIFICATION_TYPE":"U","NORAD_CAT_ID":5858,"ELEMENT_SET_NO":999,"REV_AT_EPOCH":89033,"BSTAR":0.0013634837,"MEAN_MOTION_DOT":0.00027356,"MEAN_MOTION_DDOT":0}]
